[
    {
        "Altitude(m)": 557848.9454528871,
        "Argument of Periapsis(deg)": 0.006622991110713501,
        "Eccentricity": 0.0,
        "Inclination(deg)": 53.0,
        "Latitude(deg)": -16.650296496403413,
        "Longitude(deg)": 141.27514118451893,
        "Mean Anomaly(deg)": -20.817507132422435,
        "RAAN(deg)": 254.99014336852804,
        "Satellite Name": "Starlink Shell 1 1142",
        "Satellite Number": 1142,
        "Semi-Major Axis(m)": 6931778.249405717,
        "Time(s)": 190
    },
    {
        "Altitude(m)": 557703.7276778583,
        "Argument of Periapsis(deg)": 0.0069715695902247375,
        "Eccentricity": 0.0,
        "Inclination(deg)": 53.0,
        "Latitude(deg)": -16.159575947261366,
        "Longitude(deg)": 141.64258395416147,
        "Mean Anomaly(deg)": -20.19067592886569,
        "RAAN(deg)": 254.98962459845058,
        "Satellite Name": "Starlink Shell 1 1142",
        "Satellite Number": 1142,
        "Semi-Major Axis(m)": 6931778.249405717,
        "Time(s)": 200
    },
    {
        "Altitude(m)": 557560.3777191293,
        "Argument of Periapsis(deg)": 0.007320148069735974,
        "Eccentricity": 0.0,
        "Inclination(deg)": 53.0,
        "Latitude(deg)": -15.668038440240034,
        "Longitude(deg)": 142.00802748993436,
        "Mean Anomaly(deg)": -19.563844725308996,
        "RAAN(deg)": 254.98910582837308,
        "Satellite Name": "Starlink Shell 1 1142",
        "Satellite Number": 1142,
        "Semi-Major Axis(m)": 6931778.249405717,
        "Time(s)": 210
    },
    {
        "Altitude(m)": 557418.9425685932,
        "Argument of Periapsis(deg)": 0.007668726549247212,
        "Eccentricity": 0.0,
        "Inclination(deg)": 53.0,
        "Latitude(deg)": -15.175713141364794,
        "Longitude(deg)": 142.37154214564475,
        "Mean Anomaly(deg)": -18.93701352175235,
        "RAAN(deg)": 254.9885870582956,
        "Satellite Name": "Starlink Shell 1 1142",
        "Satellite Number": 1142,
        "Semi-Major Axis(m)": 6931778.249405717,
        "Time(s)": 220
    },
    {
        "Altitude(m)": 557279.4682171845,
        "Argument of Periapsis(deg)": 0.00801730502875845,
        "Eccentricity": 0.0,
        "Inclination(deg)": 53.0,
        "Latitude(deg)": -14.68262879684285,
        "Longitude(deg)": 142.73319746686064,
        "Mean Anomaly(deg)": -18.3101823181955,
        "RAAN(deg)": 254.9880682882182,
        "Satellite Name": "Starlink Shell 1 1142",
        "Satellite Number": 1142,
        "Semi-Major Axis(m)": 6931778.249405717,
        "Time(s)": 230
    },
    {
        "Altitude(m)": 557141.99963474,
        "Argument of Periapsis(deg)": 0.008365883508269684,
        "Eccentricity": 0.0,
        "Inclination(deg)": 53.0,
        "Latitude(deg)": -14.188813750178218,
        "Longitude(deg)": 143.0930627218154,
        "Mean Anomaly(deg)": -17.68335111463886,
        "RAAN(deg)": 254.98754951814067,
        "Satellite Name": "Starlink Shell 1 1142",
        "Satellite Number": 1142,
        "Semi-Major Axis(m)": 6931778.249405717,
        "Time(s)": 240
    },
    {
        "Altitude(m)": 557006.5807503847,
        "Argument of Periapsis(deg)": 0.008714461987780921,
        "Eccentricity": 0.0,
        "Inclination(deg)": 53.0,
        "Latitude(deg)": -13.694295958927508,
        "Longitude(deg)": 143.4512059194935,
        "Mean Anomaly(deg)": -17.056519911082162,
        "RAAN(deg)": 254.98703074806318,
        "Satellite Name": "Starlink Shell 1 1142",
        "Satellite Number": 1142,
        "Semi-Major Axis(m)": 6931778.249405717,
        "Time(s)": 250
    },
    {
        "Altitude(m)": 556873.2544334005,
        "Argument of Periapsis(deg)": 0.009063040467292158,
        "Eccentricity": 0.0,
        "Inclination(deg)": 53.0,
        "Latitude(deg)": -13.199103011115028,
        "Longitude(deg)": 143.8076943406177,
        "Mean Anomaly(deg)": -16.429688707525415,
        "RAAN(deg)": 254.98651197798574,
        "Satellite Name": "Starlink Shell 1 1142",
        "Satellite Number": 1142,
        "Semi-Major Axis(m)": 6931778.249405717,
        "Time(s)": 260
    },
    {
        "Altitude(m)": 556742.0624746274,
        "Argument of Periapsis(deg)": 0.009411618946803396,
        "Eccentricity": 0.0,
        "Inclination(deg)": 53.0,
        "Latitude(deg)": -12.703262141315692,
        "Longitude(deg)": 144.1625950686452,
        "Mean Anomaly(deg)": -15.802857503968669,
        "RAAN(deg)": 254.98599320790828,
        "Satellite Name": "Starlink Shell 1 1142",
        "Satellite Number": 1142,
        "Semi-Major Axis(m)": 6931778.249405717,
        "Time(s)": 270
    },
    {
        "Altitude(m)": 556613.0455683924,
        "Argument of Periapsis(deg)": 0.009760197426314633,
        "Eccentricity": 0.0,
        "Inclination(deg)": 53.0,
        "Latitude(deg)": -12.206800246417068,
        "Longitude(deg)": 144.51597400788276,
        "Mean Anomaly(deg)": -15.176026300411975,
        "RAAN(deg)": 254.9854744378308,
        "Satellite Name": "Starlink Shell 1 1142",
        "Satellite Number": 1142,
        "Semi-Major Axis(m)": 6931778.249405717,
        "Time(s)": 280
    },
    {
        "Altitude(m)": 556486.2432949828,
        "Argument of Periapsis(deg)": 0.01010877590582587,
        "Eccentricity": 0.0,
        "Inclination(deg)": 53.0,
        "Latitude(deg)": -11.709743901076,
        "Longitude(deg)": 144.86789641444975,
        "Mean Anomaly(deg)": -14.549195096855279,
        "RAAN(deg)": 254.98495566775333,
        "Satellite Name": "Starlink Shell 1 1142",
        "Satellite Number": 1142,
        "Semi-Major Axis(m)": 6931778.249405717,
        "Time(s)": 290
    },
    {
        "Altitude(m)": 556361.694103658,
        "Argument of Periapsis(deg)": 0.010457354385337106,
        "Eccentricity": 0.0,
        "Inclination(deg)": 53.0,
        "Latitude(deg)": -11.212119372881757,
        "Longitude(deg)": 145.21842742720224,
        "Mean Anomaly(deg)": -13.922363893298582,
        "RAAN(deg)": 254.98443689767583,
        "Satellite Name": "Starlink Shell 1 1142",
        "Satellite Number": 1142,
        "Semi-Major Axis(m)": 6931778.249405717,
        "Time(s)": 300
    },
    {
        "Altitude(m)": 556239.4352962408,
        "Argument of Periapsis(deg)": 0.010805932864848343,
        "Eccentricity": 0.0,
        "Inclination(deg)": 53.0,
        "Latitude(deg)": -10.71395263723409,
        "Longitude(deg)": 145.5676310857365,
        "Mean Anomaly(deg)": -13.295532689741785,
        "RAAN(deg)": 254.98391812759834,
        "Satellite Name": "Starlink Shell 1 1142",
        "Satellite Number": 1142,
        "Semi-Major Axis(m)": 6931778.249405717,
        "Time(s)": 310
    },
    {
        "Altitude(m)": 556119.5030112512,
        "Argument of Periapsis(deg)": 0.01115451134435958,
        "Eccentricity": 0.0,
        "Inclination(deg)": 53.0,
        "Latitude(deg)": -10.215269391954484,
        "Longitude(deg)": 145.9155708612044,
        "Mean Anomaly(deg)": -12.668701486185192,
        "RAAN(deg)": 254.9833993575209,
        "Satellite Name": "Starlink Shell 1 1142",
        "Satellite Number": 1142,
        "Semi-Major Axis(m)": 6931778.249405717,
        "Time(s)": 320
    },
    {
        "Altitude(m)": 556001.9322086353,
        "Argument of Periapsis(deg)": 0.011503089823870818,
        "Eccentricity": 0.0,
        "Inclination(deg)": 53.0,
        "Latitude(deg)": -9.716095071638817,
        "Longitude(deg)": 146.2623101870633,
        "Mean Anomaly(deg)": -12.041870282628393,
        "RAAN(deg)": 254.98288058744342,
        "Satellite Name": "Starlink Shell 1 1142",
        "Satellite Number": 1142,
        "Semi-Major Axis(m)": 6931778.249405717,
        "Time(s)": 330
    },
    {
        "Altitude(m)": 555886.75665506,
        "Argument of Periapsis(deg)": 0.011851668303382053,
        "Eccentricity": 0.0,
        "Inclination(deg)": 53.0,
        "Latitude(deg)": -9.216454861764042,
        "Longitude(deg)": 146.6079114768795,
        "Mean Anomaly(deg)": -11.415039079071645,
        "RAAN(deg)": 254.98236181736593,
        "Satellite Name": "Starlink Shell 1 1142",
        "Satellite Number": 1142,
        "Semi-Major Axis(m)": 6931778.249405717,
        "Time(s)": 340
    },
    {
        "Altitude(m)": 555774.0089098238,
        "Argument of Periapsis(deg)": 0.012200246782893292,
        "Eccentricity": 0.0,
        "Inclination(deg)": 53.0,
        "Latitude(deg)": -8.716373712562868,
        "Longitude(deg)": 146.95243665492714,
        "Mean Anomaly(deg)": -10.788207875515003,
        "RAAN(deg)": 254.98184304728852,
        "Satellite Name": "Starlink Shell 1 1142",
        "Satellite Number": 1142,
        "Semi-Major Axis(m)": 6931778.249405717,
        "Time(s)": 350
    },
    {
        "Altitude(m)": 555663.7203113365,
        "Argument of Periapsis(deg)": 0.012548825262404526,
        "Eccentricity": 0.0,
        "Inclination(deg)": 53.0,
        "Latitude(deg)": -8.215876352677594,
        "Longitude(deg)": 147.2959476867059,
        "Mean Anomaly(deg)": -10.161376671958307,
        "RAAN(deg)": 254.981324277211,
        "Satellite Name": "Starlink Shell 1 1142",
        "Satellite Number": 1142,
        "Semi-Major Axis(m)": 6931778.249405717,
        "Time(s)": 360
    },
    {
        "Altitude(m)": 555555.9209642527,
        "Argument of Periapsis(deg)": 0.012897403741915765,
        "Eccentricity": 0.0,
        "Inclination(deg)": 53.0,
        "Latitude(deg)": -7.7149873026034905,
        "Longitude(deg)": 147.63850559650285,
        "Mean Anomaly(deg)": -9.53454546840156,
        "RAAN(deg)": 254.9808055071335,
        "Satellite Name": "Starlink Shell 1 1142",
        "Satellite Number": 1142,
        "Semi-Major Axis(m)": 6931778.249405717,
        "Time(s)": 370
    }
]